{
  "type": "FeatureCollection",
  "features": [
    {
      "type": "Feature",
      "properties": {
        "norad_id": 43260,
        "name": "GAOFEN-1 03",
        "group": "resource",
        "lat": -80.2565193565693,
        "lon": 98.28030517097746,
        "alt_km": 647.1212873290096,
        "timestamp": "2025-12-10T18:56:59.719541+00:00",
        "meta_object_name": "GAOFEN-1 03",
        "meta_object_id": "2018-031B",
        "meta_epoch": "2025-12-10T12:49:34.148064",
        "meta_mean_motion": 14.76429671,
        "meta_eccentricity": 0.0002127,
        "meta_inclination": 98.0802,
        "meta_ra_of_asc_node": 42.2,
        "meta_arg_of_pericenter": 332.1525,
        "meta_mean_anomaly": 27.957,
        "meta_ephemeris_type": 0,
        "meta_classification_type": "U",
        "meta_norad_cat_id": 43260,
        "meta_element_set_no": 999,
        "meta_rev_at_epoch": 41485,
        "meta_bstar": 0.00022389,
        "meta_mean_motion_dot": 1.505e-05,
        "meta_mean_motion_ddot": 0,
        "tle_line1": "1 43260U 18031B   25344.53442301  .00001505  00000+0  22389-3 0  9995",
        "tle_line2": "2 43260  98.0802  42.2000 0002127 332.1525  27.9570 14.76429671414854"
      },
      "geometry": {
        "type": "Point",
        "coordinates": [
          98.28030517097746,
          -80.2565193565693
        ]
      }
    },
    {
      "type": "Feature",
      "properties": {
        "norad_id": 43262,
        "name": "GAOFEN-1 04",
        "group": "resource",
        "lat": 44.126014197105704,
        "lon": 34.70333136934335,
        "alt_km": 636.0513882197383,
        "timestamp": "2025-12-10T18:56:59.719551+00:00",
        "meta_object_name": "GAOFEN-1 04",
        "meta_object_id": "2018-031D",
        "meta_epoch": "2025-12-10T12:14:31.921152",
        "meta_mean_motion": 14.7644134,
        "meta_eccentricity": 0.0001167,
        "meta_inclination": 98.0805,
        "meta_ra_of_asc_node": 42.3443,
        "meta_arg_of_pericenter": 54.1655,
        "meta_mean_anomaly": 305.9663,
        "meta_ephemeris_type": 0,
        "meta_classification_type": "U",
        "meta_norad_cat_id": 43262,
        "meta_element_set_no": 999,
        "meta_rev_at_epoch": 41484,
        "meta_bstar": 0.00017734,
        "meta_mean_motion_dot": 1.182e-05,
        "meta_mean_motion_ddot": 0,
        "tle_line1": "1 43262U 18031D   25344.51009168  .00001182  00000+0  17734-3 0  9994",
        "tle_line2": "2 43262  98.0805  42.3443 0001167  54.1655 305.9663 14.76441340414847"
      },
      "geometry": {
        "type": "Point",
        "coordinates": [
          34.70333136934335,
          44.126014197105704
        ]
      }
    },
    {
      "type": "Feature",
      "properties": {
        "norad_id": 43437,
        "name": "SENTINEL-3B",
        "group": "resource",
        "lat": -19.730590778491923,
        "lon": -133.11860059721963,
        "alt_km": 807.8566517842046,
        "timestamp": "2025-12-10T18:56:59.719561+00:00",
        "meta_object_name": "SENTINEL-3B",
        "meta_object_id": "2018-039A",
        "meta_epoch": "2025-12-10T11:17:01.773024",
        "meta_mean_motion": 14.26741564,
        "meta_eccentricity": 0.0001563,
        "meta_inclination": 98.6269,
        "meta_ra_of_asc_node": 49.6878,
        "meta_arg_of_pericenter": 105.1212,
        "meta_mean_anomaly": 255.0141,
        "meta_ephemeris_type": 0,
        "meta_classification_type": "U",
        "meta_norad_cat_id": 43437,
        "meta_element_set_no": 999,
        "meta_rev_at_epoch": 39721,
        "meta_bstar": 0.00011946,
        "meta_mean_motion_dot": 2.45e-06,
        "meta_mean_motion_ddot": 0,
        "tle_line1": "1 43437U 18039A   25344.47015941  .00000245  00000+0  11946-3 0  9995",
        "tle_line2": "2 43437  98.6269  49.6878 0001563 105.1212 255.0141 14.26741564397212"
      },
      "geometry": {
        "type": "Point",
        "coordinates": [
          -133.11860059721963,
          -19.730590778491923
        ]
      }
    },
    {
      "type": "Feature",
      "properties": {
        "norad_id": 43461,
        "name": "GAOFEN-5 01",
        "group": "resource",
        "lat": -46.548446660269995,
        "lon": -43.26866057624997,
        "alt_km": 697.9942157985442,
        "timestamp": "2025-12-10T18:56:59.719572+00:00",
        "meta_object_name": "GAOFEN-5 01",
        "meta_object_id": "2018-043A",
        "meta_epoch": "2025-12-10T10:56:38.203008",
        "meta_mean_motion": 14.60406317,
        "meta_eccentricity": 0.0001109,
        "meta_inclination": 98.4323,
        "meta_ra_of_asc_node": 307.3833,
        "meta_arg_of_pericenter": 349.3641,
        "meta_mean_anomaly": 10.7535,
        "meta_ephemeris_type": 0,
        "meta_classification_type": "U",
        "meta_norad_cat_id": 43461,
        "meta_element_set_no": 999,
        "meta_rev_at_epoch": 40414,
        "meta_bstar": 0.00018568,
        "meta_mean_motion_dot": 8.5e-06,
        "meta_mean_motion_ddot": 0,
        "tle_line1": "1 43461U 18043A   25344.45599772  .00000850  00000+0  18568-3 0  9993",
        "tle_line2": "2 43461  98.4323 307.3833 0001109 349.3641  10.7535 14.60406317404143"
      },
      "geometry": {
        "type": "Point",
        "coordinates": [
          -43.26866057624997,
          -46.548446660269995
        ]
      }
    },
    {
      "type": "Feature",
      "properties": {
        "norad_id": 43484,
        "name": "GAOFEN-6",
        "group": "resource",
        "lat": -15.277763897751322,
        "lon": -133.02489684787298,
        "alt_km": 650.4890166415753,
        "timestamp": "2025-12-10T18:56:59.719582+00:00",
        "meta_object_name": "GAOFEN-6",
        "meta_object_id": "2018-048A",
        "meta_epoch": "2025-12-10T11:33:49.610016",
        "meta_mean_motion": 14.76560299,
        "meta_eccentricity": 0.0013296,
        "meta_inclination": 97.8029,
        "meta_ra_of_asc_node": 48.8243,
        "meta_arg_of_pericenter": 70.0136,
        "meta_mean_anomaly": 290.2505,
        "meta_ephemeris_type": 0,
        "meta_classification_type": "U",
        "meta_norad_cat_id": 43484,
        "meta_element_set_no": 999,
        "meta_rev_at_epoch": 40554,
        "meta_bstar": 0.00023346,
        "meta_mean_motion_dot": 1.581e-05,
        "meta_mean_motion_ddot": 0,
        "tle_line1": "1 43484U 18048A   25344.48182419  .00001581  00000+0  23346-3 0  9994",
        "tle_line2": "2 43484  97.8029  48.8243 0013296  70.0136 290.2505 14.76560299405547"
      },
      "geometry": {
        "type": "Point",
        "coordinates": [
          -133.02489684787298,
          -15.277763897751322
        ]
      }
    },
    {
      "type": "Feature",
      "properties": {
        "norad_id": 43585,
        "name": "GAOFEN-11 01",
        "group": "resource",
        "lat": -32.61444424570349,
        "lon": -136.8708807062124,
        "alt_km": 426.56608142503137,
        "timestamp": "2025-12-10T18:56:59.719594+00:00",
        "meta_object_name": "GAOFEN-11 01",
        "meta_object_id": "2018-063A",
        "meta_epoch": "2025-12-10T10:16:56.531712",
        "meta_mean_motion": 15.49119239,
        "meta_eccentricity": 0.0004511,
        "meta_inclination": 97.1556,
        "meta_ra_of_asc_node": 47.382,
        "meta_arg_of_pericenter": 324.9271,
        "meta_mean_anomaly": 35.1683,
        "meta_ephemeris_type": 0,
        "meta_classification_type": "U",
        "meta_norad_cat_id": 43585,
        "meta_element_set_no": 999,
        "meta_rev_at_epoch": 41106,
        "meta_bstar": 0.00046049,
        "meta_mean_motion_dot": 0.00024982,
        "meta_mean_motion_ddot": 0,
        "tle_line1": "1 43585U 18063A   25344.42843208  .00024982  00000+0  46049-3 0  9992",
        "tle_line2": "2 43585  97.1556  47.3820 0004511 324.9271  35.1683 15.49119239411065"
      },
      "geometry": {
        "type": "Point",
        "coordinates": [
          -136.8708807062124,
          -32.61444424570349
        ]
      }
    },
    {
      "type": "Feature",
      "properties": {
        "norad_id": 43613,
        "name": "ICESAT-2",
        "group": "resource",
        "lat": 83.99299729064921,
        "lon": 79.65115507980931,
        "alt_km": 472.5347143770714,
        "timestamp": "2025-12-10T18:56:59.719605+00:00",
        "meta_object_name": "ICESAT-2",
        "meta_object_id": "2018-070A",
        "meta_epoch": "2025-12-10T12:14:49.339392",
        "meta_mean_motion": 15.28303251,
        "meta_eccentricity": 0.000249,
        "meta_inclination": 92.0044,
        "meta_ra_of_asc_node": 240.1356,
        "meta_arg_of_pericenter": 154.5636,
        "meta_mean_anomaly": 205.5737,
        "meta_ephemeris_type": 0,
        "meta_classification_type": "U",
        "meta_norad_cat_id": 43613,
        "meta_element_set_no": 999,
        "meta_rev_at_epoch": 40364,
        "meta_bstar": 0.00066295,
        "meta_mean_motion_dot": 0.00018288,
        "meta_mean_motion_ddot": 0,
        "tle_line1": "1 43613U 18070A   25344.51029328  .00018288  00000+0  66295-3 0  9998",
        "tle_line2": "2 43613  92.0044 240.1356 0002490 154.5636 205.5737 15.28303251403640"
      },
      "geometry": {
        "type": "Point",
        "coordinates": [
          79.65115507980931,
          83.99299729064921
        ]
      }
    }
  ]
}